NORAD_CAT_ID,OBJECT_NAME,OBJECT_TYPE,EPOCH,MEAN_MOTION,ECCENTRICITY,INCLINATION,RA_OF_ASC_NODE,ARG_OF_PERICENTER,MEAN_ANOMALY,BSTAR,MEAN_MOTION_DOT,MEAN_MOTION_DDOT,TLE_LINE0,TLE_LINE1,TLE_LINE2,SEMIMAJOR_AXIS,PERIOD,APOGEE,PERIGEE,DECAYED
50173.0,STARLINK-3289,PAYLOAD,2023-12-31 00:18:47,15.08825795,0.0001566,53.2167,229.0745,85.5184,274.5987,-5.8306e-05,-1.215e-05,0.0,0 STARLINK-3289,1 50173U 21125T   23365.01304428 -.00001215  00000-0 -58306-4 0  9995,2 50173  53.2167 229.0745 0001566  85.5184 274.5987 15.08825795112938,6917.924,95.438,540.872,538.705,0.0
50173.0,STARLINK-3289,PAYLOAD,2023-12-31 19:23:24,15.08844709,0.0001336,53.2157,225.5102,86.5346,273.5799,-0.00020485,-3.547e-05,0.0,0 STARLINK-3289,1 50173U 21125T   23365.80792167 -.00003547  00000-0 -20485-3 0  9999,2 50173  53.2157 225.5102 0001336  86.5346 273.5799 15.08844709113051,6917.866,95.437,540.655,538.807,0.0
50173.0,STARLINK-3289,PAYLOAD,2023-12-31 22:34:10,15.08819629,0.0001323,53.2157,224.9147,109.6012,250.5123,0.0002005,2.903e-05,0.0,0 STARLINK-3289,1 50173U 21125T   23365.94040313  .00002903  00000-0  20050-3 0  9994,2 50173  53.2157 224.9147 0001323 109.6012 250.5123 15.08819629116160,6917.943,95.439,540.723,538.892,0.0
50173.0,STARLINK-3289,PAYLOAD,2024-01-01 14:28:01,15.08830447,0.0001663,53.2157,221.9398,90.1681,269.9502,0.00017193,2.449e-05,0.0,0 STARLINK-3289,1 50173U 21125T   24001.60279919  .00002449  00000-0  17193-3 0  9990,2 50173  53.2157 221.9398 0001663  90.1681 269.9502 15.08830447116265,6917.91,95.438,540.925,538.624,0.0
50173.0,STARLINK-3289,PAYLOAD,2024-01-01 19:14:11,15.08834633,0.0001651,53.2156,221.0481,91.1643,268.9538,0.00020769,3.018e-05,0.0,0 STARLINK-3289,1 50173U 21125T   24001.80151701  .00003018  00000-0  20769-3 0  9996,2 50173  53.2156 221.0481 0001651  91.1643 268.9538 15.08834633113204,6917.897,95.438,540.904,538.62,0.0
50173.0,STARLINK-3289,PAYLOAD,2024-01-01 20:49:34,15.08836093,0.0001665,53.2155,220.7507,90.5324,269.5859,0.00022112,3.232e-05,0.0,0 STARLINK-3289,1 50173U 21125T   24001.86775664  .00003232  00000-0  22112-3 0  9994,2 50173  53.2155 220.7507 0001665  90.5324 269.5859 15.08836093116301,6917.892,95.438,540.909,538.606,0.0
50173.0,STARLINK-3289,PAYLOAD,2024-01-02 00:00:20,15.08838671,0.000167,53.2155,220.1558,91.2337,268.8846,0.00023783,3.499e-05,0.0,0 STARLINK-3289,1 50173U 21125T   24002.00023551  .00003499  00000-0  23783-3 0  9992,2 50173  53.2155 220.1558 0001670  91.2337 268.8846 15.08838671116323,6917.884,95.438,540.905,538.594,0.0
50173.0,STARLINK-3289,PAYLOAD,2024-01-02 20:40:20,15.08848026,0.0001663,53.2153,216.2896,95.9891,264.129,0.00016141,2.282e-05,0.0,0 STARLINK-3289,1 50173U 21125T   24002.86135192  .00002282  00000-0  16141-3 0  9990,2 50173  53.2153 216.2896 0001663  95.9891 264.1290 15.08848026116451,6917.856,95.437,540.871,538.57,0.0
50173.0,STARLINK-3289,PAYLOAD,2024-01-02 23:51:06,15.08848859,0.0001665,53.2152,215.6948,96.2373,263.8809,0.00016562,2.349e-05,0.0,0 STARLINK-3289,1 50173U 21125T   24002.99383098  .00002349  00000-0  16562-3 0  9995,2 50173  53.2152 215.6948 0001665  96.2373 263.8809 15.08848859113387,6917.853,95.437,540.87,538.566,0.0
50173.0,STARLINK-3289,PAYLOAD,2024-01-03 18:55:45,15.08839979,0.0001725,53.2151,212.1252,101.349,258.7696,-3.4881e-05,-8.43e-06,0.0,0 STARLINK-3289,1 50173U 21125T   24003.78871974 -.00000843  00000-0 -34881-4 0  9992,2 50173  53.2151 212.1252 0001725 101.3490 258.7696 15.08839979113505,6917.88,95.438,540.939,538.552,0.0
50173.0,STARLINK-3289,PAYLOAD,2024-01-03 20:31:08,15.08840066,0.0001709,53.2152,211.8279,99.3904,260.7281,-3.7864e-05,-8.91e-06,0.0,0 STARLINK-3289,1 50173U 21125T   24003.85495977 -.00000891  00000-0 -37864-4 0  9992,2 50173  53.2152 211.8279 0001709  99.3904 260.7281 15.08840066116605,6917.88,95.438,540.927,538.563,0.0
50173.0,STARLINK-3289,PAYLOAD,2024-01-03 23:41:54,15.08839076,0.0001706,53.2152,211.2334,98.7479,261.3707,-4.6049e-05,-1.021e-05,0.0,0 STARLINK-3289,1 50173U 21125T   24003.98744038 -.00001021  00000-0 -46049-4 0  9992,2 50173  53.2152 211.2334 0001706  98.7479 261.3707 15.08839076116629,6917.883,95.438,540.928,538.568,0.0
50173.0,STARLINK-3289,PAYLOAD,2024-01-04 20:21:54,15.08845279,0.0001691,53.2151,207.3675,98.2357,261.8827,1.5164e-05,-4.7e-07,0.0,0 STARLINK-3289,1 50173U 21125T   24004.84855278 -.00000047  00000-0  15164-4 0  9997,2 50173  53.2151 207.3675 0001691  98.2357 261.8827 15.08845279113666,6917.864,95.437,540.899,538.559,0.0
50173.0,STARLINK-3289,PAYLOAD,2024-01-04 23:32:41,15.08843249,0.0001647,53.2151,206.7744,88.5423,271.5758,4.0544e-05,3.57e-06,0.0,0 STARLINK-3289,1 50173U 21125T   24004.98103366  .00000357  00000-0  40544-4 0  9999,2 50173  53.2151 206.7744 0001647  88.5423 271.5758 15.08843249116774,6917.87,95.437,540.875,538.596,0.0
50173.0,STARLINK-3289,PAYLOAD,2024-01-05 18:37:19,15.08834762,0.0001638,53.215,203.2052,94.9313,265.1866,5.1741e-05,5.35e-06,0.0,0 STARLINK-3289,1 50173U 21125T   24005.77591970  .00000535  00000-0  51741-4 0  9998,2 50173  53.2150 203.2052 0001638  94.9313 265.1866 15.08834762113806,6917.896,95.438,540.895,538.628,0.0
50173.0,STARLINK-3289,PAYLOAD,2024-01-06 20:03:29,15.08842047,0.0001642,53.2153,198.4466,90.4723,269.6457,4.0087e-05,3.5e-06,0.0,0 STARLINK-3289,1 50173U 21125T   24006.83575666  .00000350  00000-0  40087-4 0  9996,2 50173  53.2153 198.4466 0001642  90.4723 269.6457 15.08842047117055,6917.874,95.437,540.875,538.603,0.0
50173.0,STARLINK-3289,PAYLOAD,2024-01-07 19:54:16,15.08837141,0.0001632,53.2158,193.9858,84.3448,275.773,4.5114e-05,4.3e-06,0.0,0 STARLINK-3289,1 50173U 21125T   24007.82936157  .00000430  00000-0  45114-4 0  9997,2 50173  53.2158 193.9858 0001632  84.3448 275.7730 15.08837141114115,6917.889,95.438,540.883,538.625,0.0
50173.0,STARLINK-3289,PAYLOAD,2024-01-07 21:29:39,15.08836965,0.0001611,53.2156,193.6889,87.1788,272.9389,4.1396e-05,3.71e-06,0.0,0 STARLINK-3289,1 50173U 21125T   24007.89560151  .00000371  00000-0  41396-4 0  9993,2 50173  53.2156 193.6889 0001611  87.1788 272.9389 15.08836965117215,6917.89,95.438,540.869,538.64,0.0
50173.0,STARLINK-3289,PAYLOAD,2024-01-08 11:48:07,15.0884119,0.0001606,53.2157,191.0128,86.8785,273.2391,4.1483e-05,3.72e-06,0.0,0 STARLINK-3289,1 50173U 21125T   24008.49175925  .00000372  00000-0  41483-4 0  9999,2 50173  53.2157 191.0128 0001606  86.8785 273.2391 15.08841190117304,6917.877,95.437,540.853,538.631,0.0
50173.0,STARLINK-3289,PAYLOAD,2024-01-08 19:45:03,15.08845857,0.0001598,53.2155,189.5264,86.5996,273.5178,7.5382e-05,9.12e-06,0.0,0 STARLINK-3289,1 50173U 21125T   24008.82295447  .00000912  00000-0  75382-4 0  9993,2 50173  53.2155 189.5264 0001598  86.5996 273.5178 15.08845857114268,6917.862,95.437,540.833,538.622,0.0
50173.0,STARLINK-3289,PAYLOAD,2024-01-09 18:00:27,15.08841392,0.0001561,53.2155,185.3632,88.6697,271.4474,7.0414e-05,8.33e-06,0.0,0 STARLINK-3289,1 50173U 21125T   24009.75031645  .00000833  00000-0  70414-4 0  9997,2 50173  53.2155 185.3632 0001561  88.6697 271.4474 15.08841392114404,6917.876,95.437,540.821,538.661,0.0
50173.0,STARLINK-3289,PAYLOAD,2024-01-10 21:02:00,15.08841647,0.0001477,53.2154,180.3068,101.3137,258.8022,2.5556e-06,-2.47e-06,0.0,0 STARLINK-3289,1 50173U 21125T   24010.87639708 -.00000247  00000-0  25556-5 0  9994,2 50173  53.2154 180.3068 0001477 101.3137 258.8022 15.08841647114578,6917.875,95.437,540.762,538.719,0.0
50173.0,STARLINK-3289,PAYLOAD,2024-01-11 14:31:15,15.08841426,0.0001452,53.2154,177.0356,101.3488,258.7667,5.9281e-05,6.56e-06,0.0,0 STARLINK-3289,1 50173U 21125T   24011.60503538  .00000656  00000-0  59281-4 0  9991,2 50173  53.2154 177.0356 0001452 101.3488 258.7667 15.08841426117777,6917.876,95.437,540.746,538.737,0.0
50173.0,STARLINK-3289,PAYLOAD,2024-01-11 17:42:01,15.0884502,0.0001433,53.2155,176.4409,99.179,260.9364,6.1968e-05,6.99e-06,0.0,0 STARLINK-3289,1 50173U 21125T   24011.73751323  .00000699  00000-0  61968-4 0  9994,2 50173  53.2155 176.4409 0001433  99.1790 260.9364 15.08845020117794,6917.865,95.437,540.721,538.739,0.0
50173.0,STARLINK-3289,PAYLOAD,2024-01-12 11:11:16,15.08834092,0.0001404,53.2159,173.1702,84.8249,275.2903,9.1202e-06,-1.43e-06,0.0,0 STARLINK-3289,1 50173U 21125T   24012.46616390 -.00000143  00000-0  91202-5 0  9999,2 50173  53.2159 173.1702 0001404  84.8249 275.2903 15.08834092114811,6917.898,95.438,540.735,538.792,0.0
50173.0,STARLINK-3289,PAYLOAD,2024-01-12 14:22:02,15.08836052,0.000141,53.2155,172.5749,96.9345,263.1807,3.7869e-05,3.15e-06,0.0,0 STARLINK-3289,1 50173U 21125T   24012.59864180  .00000315  00000-0  37869-4 0  9993,2 50173  53.2155 172.5749 0001410  96.9345 263.1807 15.08836052117921,6917.892,95.438,540.733,538.782,0.0
50173.0,STARLINK-3289,PAYLOAD,2024-01-12 15:57:25,15.0883591,0.0001394,53.216,172.2782,84.2469,275.8682,2.1371e-05,5.2e-07,0.0,0 STARLINK-3289,1 50173U 21125T   24012.66488298  .00000052  00000-0  21371-4 0  9992,2 50173  53.2160 172.2782 0001394  84.2469 275.8682 15.08835910117933,6917.893,95.438,540.722,538.794,0.0
50173.0,STARLINK-3289,PAYLOAD,2024-01-13 14:12:49,15.08837101,0.0001393,53.2158,168.1148,97.7065,262.4085,3.6137e-05,2.87e-06,0.0,0 STARLINK-3289,1 50173U 21125T   24013.59224418  .00000287  00000-0  36137-4 0  9993,2 50173  53.2158 168.1148 0001393  97.7065 262.4085 15.08837101118079,6917.889,95.438,540.718,538.791,0.0
50173.0,STARLINK-3289,PAYLOAD,2024-01-13 17:23:35,15.0884054,0.0001405,53.2158,167.5198,97.2058,262.9094,6.4637e-05,7.41e-06,0.0,0 STARLINK-3289,1 50173U 21125T   24013.72472141  .00000741  00000-0  64637-4 0  9997,2 50173  53.2158 167.5198 0001405  97.2058 262.9094 15.08840540115004,6917.879,95.438,540.716,538.772,0.0
50173.0,STARLINK-3289,PAYLOAD,2024-01-14 14:03:36,15.08838813,0.0001323,53.2156,163.6547,97.641,262.4732,6.8322e-05,8e-06,0.0,0 STARLINK-3289,1 50173U 21125T   24014.58584399  .00000800  00000-0  68322-4 0  9992,2 50173  53.2156 163.6547 0001323  97.6410 262.4732 15.08838813118223,6917.884,95.438,540.664,538.834,0.0
